"{\n    \"CCSDS_OMM_VERS\": \"2.0\",\n    \"COMMENT\": \"GENERATED VIA SPACE-TRACK.ORG API\",\n    \"CREATION_DATE\": \"2025-08-29T02:15:49\",\n    \"ORIGINATOR\": \"18 SPCS\",\n    \"OBJECT_NAME\": \"NAVSTAR 81 (USA 319)\",\n    \"OBJECT_ID\": \"2021-054A\",\n    \"CENTER_NAME\": \"EARTH\",\n    \"REF_FRAME\": \"TEME\",\n    \"TIME_SYSTEM\": \"UTC\",\n    \"MEAN_ELEMENT_THEORY\": \"SGP4\",\n    \"EPOCH\": \"2025-08-28T21:54:55.412640\",\n    \"MEAN_MOTION\": \"2.0055948368\",\n    \"ECCENTRICITY\": \"0.0022561883\",\n    \"INCLINATION\": \"55.293183\",\n    \"RA_OF_ASC_NODE\": \"344.20389\",\n    \"ARG_OF_PERICENTER\": \"227.05784\",\n    \"MEAN_ANOMALY\": \"184.58246\",\n    \"EPHEMERIS_TYPE\": \"0\",\n    \"CLASSIFICATION_TYPE\": \"U\",\n    \"NORAD_CAT_ID\": \"48859\",\n    \"ELEMENT_SET_NO\": \"999\",\n    \"REV_AT_EPOCH\": \"3089\",\n    \"BSTAR\": \"0\",\n    \"MEAN_MOTION_DOT\": \"-0.000001059508\",\n    \"MEAN_MOTION_DDOT\": \"0\",\n    \"TLE_LINE0\": \"0 NAVSTAR 81 (USA 319)\",\n    \"TLE_LINE1\": \"1 48859U 21054A   25240.91314135 -.00000106  00000-0  00000-0 0  9994\",\n    \"TLE_LINE2\": \"2 48859  55.2932 344.2039 0022562 227.0578 184.5825  2.00559484 30895\",\n    \"SEMIMAJOR_AXIS\": \"26560.712\",\n    \"PERIOD\": \"717.991\",\n    \"APOAPSIS\": \"20242.503\",\n    \"PERIAPSIS\": \"20122.651\",\n    \"OBJECT_TYPE\": \"PAYLOAD\",\n    \"DECAYED\": \"0\"\n}"